start=new Date('2021-10-20T00:00:00.000Z').valueOf();
sats=[{"INCLINATION":"53.0502","MEAN_MOTION":"15.72403111","FILE":"3171564","TLE_LINE1":"1 47140U 20088U   21292.41217787  .00104405  00000-0  76404-3 0  9995","GP_ID":"187583519","NORAD_CAT_ID":"47140","EPHEMERIS_TYPE":"0","LAUNCH_DATE":"2020-11-25","APOAPSIS":"355.420","MEAN_ELEMENT_THEORY":"SGP4","RA_OF_ASC_NODE":"260.0593","CLASSIFICATION_TYPE":"U","SITE":"AFETR","SEMIMAJOR_AXIS":"6730.168","RCS_SIZE":"LARGE","MEAN_MOTION_DOT":"0.00104405","PERIOD":"91.580","OBJECT_NAME":"STARLINK-1853","TIME_SYSTEM":"UTC","MEAN_MOTION_DDOT":"0.0000000000000","MEAN_ANOMALY":"75.5510","REF_FRAME":"TEME","EPOCH":"2021-10-19T09:53:32.167968","OBJECT_TYPE":"PAYLOAD","COUNTRY_CODE":"US","OBJECT_ID":"2020-088U","REV_AT_EPOCH":"5112","CENTER_NAME":"EARTH","PERIAPSIS":"348.646","ELEMENT_SET_NO":"999","BSTAR":"0.00076404000000","ECCENTRICITY":"0.00050330","DECAY_DATE":null,"TLE_LINE2":"2 47140  53.0502 260.0593 0005033 284.4949  75.5510 15.72403111 51126","ARG_OF_PERICENTER":"284.4949"},{"SITE":"AFETR","CLASSIFICATION_TYPE":"U","RA_OF_ASC_NODE":"283.2165","MEAN_ELEMENT_THEORY":"SGP4","APOAPSIS":"548.211","TIME_SYSTEM":"UTC","OBJECT_NAME":"STARLINK-1854","PERIOD":"95.592","MEAN_MOTION_DOT":"0.00002216","RCS_SIZE":"LARGE","SEMIMAJOR_AXIS":"6925.357","TLE_LINE1":"1 47141U 20088V   21292.68837751  .00002216  00000-0  16761-3 0  9991","MEAN_MOTION":"15.06397384","FILE":"3172644","INCLINATION":"53.0546","LAUNCH_DATE":"2020-11-25","EPHEMERIS_TYPE":"0","NORAD_CAT_ID":"47141","GP_ID":"187631132","PERIAPSIS":"546.232","CENTER_NAME":"EARTH","REV_AT_EPOCH":"5052","ARG_OF_PERICENTER":"75.2730","TLE_LINE2":"2 47141  53.0546 283.2165 0001429  75.2730 284.8418 15.06397384 50522","DECAY_DATE":null,"BSTAR":"0.00016761000000","ECCENTRICITY":"0.00014290","ELEMENT_SET_NO":"999","REF_FRAME":"TEME","MEAN_ANOMALY":"284.8418","MEAN_MOTION_DDOT":"0.0000000000000","OBJECT_ID":"2020-088V","COUNTRY_CODE":"US","OBJECT_TYPE":"PAYLOAD","EPOCH":"2021-10-19T16:31:15.816864"},{"MEAN_MOTION_DDOT":"0.0000000000000","MEAN_ANOMALY":"283.3722","REF_FRAME":"TEME","EPOCH":"2021-10-19T16:04:44.085216","OBJECT_TYPE":"PAYLOAD","COUNTRY_CODE":"US","OBJECT_ID":"2020-088X","REV_AT_EPOCH":"5051","CENTER_NAME":"EARTH","PERIAPSIS":"546.073","BSTAR":"0.00005806200000","ECCENTRICITY":"0.00016410","ELEMENT_SET_NO":"999","TLE_LINE2":"2 47143  53.0544 283.3531 0001641  76.7450 283.3722 15.06401488 50513","DECAY_DATE":null,"ARG_OF_PERICENTER":"76.7450","FILE":"3172644","MEAN_MOTION":"15.06401488","INCLINATION":"53.0544","TLE_LINE1":"1 47143U 20088X   21292.66995469  .00000583  00000-0  58062-4 0  9998","NORAD_CAT_ID":"47143","GP_ID":"187630384","LAUNCH_DATE":"2020-11-25","EPHEMERIS_TYPE":"0","APOAPSIS":"548.345","MEAN_ELEMENT_THEORY":"SGP4","SITE":"AFETR","RA_OF_ASC_NODE":"283.3531","CLASSIFICATION_TYPE":"U","RCS_SIZE":"LARGE","MEAN_MOTION_DOT":"0.00000583","SEMIMAJOR_AXIS":"6925.344","PERIOD":"95.592","OBJECT_NAME":"STARLINK-1856","TIME_SYSTEM":"UTC"},{"OBJECT_NAME":"STARLINK-1857","TIME_SYSTEM":"UTC","RCS_SIZE":"LARGE","MEAN_MOTION_DOT":"0.00002433","SEMIMAJOR_AXIS":"6925.328","PERIOD":"95.592","MEAN_ELEMENT_THEORY":"SGP4","SITE":"AFETR","CLASSIFICATION_TYPE":"U","RA_OF_ASC_NODE":"273.4230","APOAPSIS":"548.236","LAUNCH_DATE":"2020-11-25","EPHEMERIS_TYPE":"0","GP_ID":"187630135","NORAD_CAT_ID":"47144","TLE_LINE1":"1 47144U 20088Y   21292.65614046  .00002433  00000-0  18213-3 0  9996","FILE":"3172644","MEAN_MOTION":"15.06406859","INCLINATION":"53.0553","ARG_OF_PERICENTER":"70.5396","BSTAR":"0.00018213000000","ECCENTRICITY":"0.00015070","ELEMENT_SET_NO":"999","TLE_LINE2":"2 47144  53.0553 273.4230 0001507  70.5396 289.5756 15.06406859 50659","DECAY_DATE":null,"PERIAPSIS":"546.149","REV_AT_EPOCH":"5065","CENTER_NAME":"EARTH","COUNTRY_CODE":"US","OBJECT_ID":"2020-088Y","EPOCH":"2021-10-19T15:44:50.535744","OBJECT_TYPE":"PAYLOAD","REF_FRAME":"TEME","MEAN_ANOMALY":"289.5756","MEAN_MOTION_DDOT":"0.0000000000000"},{"SEMIMAJOR_AXIS":"6925.325","RCS_SIZE":"LARGE","MEAN_MOTION_DOT":"0.00001322","PERIOD":"95.592","OBJECT_NAME":"STARLINK-1858","TIME_SYSTEM":"UTC","APOAPSIS":"550.996","MEAN_ELEMENT_THEORY":"SGP4","CLASSIFICATION_TYPE":"U","RA_OF_ASC_NODE":"273.4461","SITE":"AFETR","GP_ID":"187631387","NORAD_CAT_ID":"47145","EPHEMERIS_TYPE":"0","LAUNCH_DATE":"2020-11-25","INCLINATION":"53.0524","MEAN_MOTION":"15.06407615","FILE":"3172644","TLE_LINE1":"1 47145U 20088Z   21292.64875837  .00001322  00000-0  10769-3 0  9997","ELEMENT_SET_NO":"999","BSTAR":"0.00010769000000","ECCENTRICITY":"0.00054960","DECAY_DATE":null,"TLE_LINE2":"2 47145  53.0524 273.4461 0005496 103.0283 257.1320 15.06407615 50651","ARG_OF_PERICENTER":"103.0283","REV_AT_EPOCH":"5065","CENTER_NAME":"EARTH","PERIAPSIS":"543.384","EPOCH":"2021-10-19T15:34:12.723168","OBJECT_TYPE":"PAYLOAD","COUNTRY_CODE":"US","OBJECT_ID":"2020-088Z","MEAN_MOTION_DDOT":"0.0000000000000","MEAN_ANOMALY":"257.1320","REF_FRAME":"TEME"},{"MEAN_ANOMALY":"273.0399","MEAN_MOTION_DDOT":"0.0000000000000","REF_FRAME":"TEME","OBJECT_TYPE":"PAYLOAD","EPOCH":"2021-10-19T09:54:29.027808","OBJECT_ID":"2020-088AA","COUNTRY_CODE":"US","CENTER_NAME":"EARTH","REV_AT_EPOCH":"5044","PERIAPSIS":"546.313","TLE_LINE2":"2 47146  53.0559 304.5197 0001249  87.0733 273.0399 15.06411680 50442","DECAY_DATE":null,"BSTAR":"0.00003517500000","ECCENTRICITY":"0.00012490","ELEMENT_SET_NO":"999","ARG_OF_PERICENTER":"87.0733","MEAN_MOTION":"15.06411680","FILE":"3171444","INCLINATION":"53.0559","TLE_LINE1":"1 47146U 20088AA  21292.41283597  .00000243  00000-0  35175-4 0  9999","NORAD_CAT_ID":"47146","GP_ID":"187581214","LAUNCH_DATE":"2020-11-25","EPHEMERIS_TYPE":"0","APOAPSIS":"548.043","SITE":"AFETR","RA_OF_ASC_NODE":"304.5197","CLASSIFICATION_TYPE":"U","MEAN_ELEMENT_THEORY":"SGP4","PERIOD":"95.591","MEAN_MOTION_DOT":"0.00000243","RCS_SIZE":"LARGE","SEMIMAJOR_AXIS":"6925.313","TIME_SYSTEM":"UTC","OBJECT_NAME":"STARLINK-1859"},{"REV_AT_EPOCH":"5058","CENTER_NAME":"EARTH","PERIAPSIS":"546.111","ELEMENT_SET_NO":"999","BSTAR":"0.00003195600000","ECCENTRICITY":"0.00015890","DECAY_DATE":null,"TLE_LINE2":"2 47147  53.0535 294.8200 0001589  72.3727 287.7435 15.06400807 50587","ARG_OF_PERICENTER":"72.3727","MEAN_MOTION_DDOT":"0.0000000000000","MEAN_ANOMALY":"287.7435","REF_FRAME":"TEME","EPOCH":"2021-10-19T08:21:37.357920","OBJECT_TYPE":"PAYLOAD","COUNTRY_CODE":"US","OBJECT_ID":"2020-088AB","APOAPSIS":"548.312","MEAN_ELEMENT_THEORY":"SGP4","RA_OF_ASC_NODE":"294.8200","CLASSIFICATION_TYPE":"U","SITE":"AFETR","SEMIMAJOR_AXIS":"6925.346","MEAN_MOTION_DOT":"0.00000194","RCS_SIZE":"LARGE","PERIOD":"95.592","OBJECT_NAME":"STARLINK-1860","TIME_SYSTEM":"UTC","INCLINATION":"53.0535","FILE":"3171462","MEAN_MOTION":"15.06400807","TLE_LINE1":"1 47147U 20088AB  21292.34834905  .00000194  00000-0  31956-4 0  9995","GP_ID":"187581225","NORAD_CAT_ID":"47147","EPHEMERIS_TYPE":"0","LAUNCH_DATE":"2020-11-25"},{"OBJECT_TYPE":"PAYLOAD","EPOCH":"2021-10-19T10:56:53.224512","OBJECT_ID":"2020-088AC","COUNTRY_CODE":"US","MEAN_ANOMALY":"281.5921","MEAN_MOTION_DDOT":"0.0000000000000","REF_FRAME":"TEME","DECAY_DATE":null,"TLE_LINE2":"2 47148  53.0564 284.3205 0001598  78.5248 281.5921 15.06397521 50732","ELEMENT_SET_NO":"999","BSTAR":"0.00020875000000","ECCENTRICITY":"0.00015980","ARG_OF_PERICENTER":"78.5248","CENTER_NAME":"EARTH","REV_AT_EPOCH":"5073","PERIAPSIS":"546.114","NORAD_CAT_ID":"47148","GP_ID":"187584311","EPHEMERIS_TYPE":"0","LAUNCH_DATE":"2020-11-25","INCLINATION":"53.0564","FILE":"3171587","MEAN_MOTION":"15.06397521","TLE_LINE1":"1 47148U 20088AC  21292.45617158  .00002829  00000-0  20875-3 0  9991","PERIOD":"95.592","SEMIMAJOR_AXIS":"6925.356","MEAN_MOTION_DOT":"0.00002829","RCS_SIZE":"LARGE","TIME_SYSTEM":"UTC","OBJECT_NAME":"STARLINK-1861","APOAPSIS":"548.328","CLASSIFICATION_TYPE":"U","RA_OF_ASC_NODE":"284.3205","SITE":"AFETR","MEAN_ELEMENT_THEORY":"SGP4"},{"GP_ID":"187584316","NORAD_CAT_ID":"47149","LAUNCH_DATE":"2020-11-25","EPHEMERIS_TYPE":"0","FILE":"3171588","MEAN_MOTION":"15.06398670","INCLINATION":"53.0542","TLE_LINE1":"1 47149U 20088AD  21292.41838057 -.00000152  00000-0  86899-5 0  9999","RCS_SIZE":"LARGE","MEAN_MOTION_DOT":"-0.00000152","SEMIMAJOR_AXIS":"6925.353","PERIOD":"95.592","OBJECT_NAME":"STARLINK-1862","TIME_SYSTEM":"UTC","APOAPSIS":"548.308","MEAN_ELEMENT_THEORY":"SGP4","SITE":"AFETR","RA_OF_ASC_NODE":"294.5015","CLASSIFICATION_TYPE":"U","EPOCH":"2021-10-19T10:02:28.081248","OBJECT_TYPE":"PAYLOAD","COUNTRY_CODE":"US","OBJECT_ID":"2020-088AD","MEAN_MOTION_DDOT":"0.0000000000000","MEAN_ANOMALY":"278.5032","REF_FRAME":"TEME","BSTAR":"0.00000868990000","ECCENTRICITY":"0.00015740","ELEMENT_SET_NO":"999","TLE_LINE2":"2 47149  53.0542 294.5015 0001574  81.6136 278.5032 15.06398670 50595","DECAY_DATE":null,"ARG_OF_PERICENTER":"81.6136","REV_AT_EPOCH":"5059","CENTER_NAME":"EARTH","PERIAPSIS":"546.128"},{"CLASSIFICATION_TYPE":"U","RA_OF_ASC_NODE":"283.3404","SITE":"AFETR","MEAN_ELEMENT_THEORY":"SGP4","APOAPSIS":"548.312","TIME_SYSTEM":"UTC","OBJECT_NAME":"STARLINK-1863","PERIOD":"95.592","SEMIMAJOR_AXIS":"6925.354","MEAN_MOTION_DOT":"0.00001781","RCS_SIZE":"LARGE","TLE_LINE1":"1 47150U 20088AE  21292.67731088  .00001781  00000-0  13845-3 0  9992","INCLINATION":"53.0537","MEAN_MOTION":"15.06398172","FILE":"3172644","EPHEMERIS_TYPE":"0","LAUNCH_DATE":"2020-11-25","GP_ID":"187631133","NORAD_CAT_ID":"47150","PERIAPSIS":"546.126","CENTER_NAME":"EARTH","REV_AT_EPOCH":"5052","ARG_OF_PERICENTER":"81.8807","DECAY_DATE":null,"TLE_LINE2":"2 47150  53.0537 283.3404 0001578  81.8807 278.2361 15.06398172 50522","ELEMENT_SET_NO":"999","BSTAR":"0.00013845000000","ECCENTRICITY":"0.00015780","REF_FRAME":"TEME","MEAN_MOTION_DDOT":"0.0000000000000","MEAN_ANOMALY":"278.2361","OBJECT_ID":"2020-088AE","COUNTRY_CODE":"US","OBJECT_TYPE":"PAYLOAD","EPOCH":"2021-10-19T16:15:19.660032"}];
